P/2022 C3 (PANSTARRS),e,12.8232,139.0370,93.7895,9.617010,0.0330479,0.54575986,48.4657,07/06.0/2026,2000,g 11.5,4.0
# From MPC194179
P/2022 D1 (PANSTARRS),e,44.0478,47.9201,88.7110,7.408636,0.0488761,0.54818955,86.5885,07/06.0/2026,2000,g 12.5,4.0
# From MPEC 2022-L66
P/2022 E1 (Christensen),e,19.0074,113.3389,114.7969,3.777515,0.1342440,0.22065454,199.8443,07/06.0/2026,2000,g 13.5,4.0
# From MPC xxxxx
C/2022 E2 (ATLAS),h,09/14.3582/2024,137.1403,125.3976,41.7927,1.000808,3.668025,2000,5.0,4.0
# From MPC194179
C/2022 E3 (ZTF),h,01/12.2759/2023,109.1812,302.4878,145.8812,1.000052,1.117321,2000,7.5,4.0
# From MPC194179
C/2022 F1 (ATLAS),e,57.9803,350.6365,278.3957,50579,0.0000001,0.99988175,0.0000,08/06.2720/2022,2000,g  7.0,4.0
# From MPC194179
C/2022 H1 (PANSTARRS),e,49.8665,6.3009,246.2920,875.6816,0.0000380,0.99122037,0.0000,01/18.4967/2024,2000,g  6.0,4.0
# From MPC194180
C/2022 JK5 (PANSTARRS),e,16.8293,59.6534,247.3439,43.38147,0.0034494,0.93787299,4.0171,07/06.0/2026,2000,g 11.0,4.0
# From MPC194180
C/2022 L2 (ATLAS),h,03/11.8745/2024,129.3116,39.2499,199.9241,1.000213,2.694593,2000,6.5,4.0
# From MPC xxxxx
C/2022 N2 (PANSTARRS),h,08/01.1754/2025,5.5034,319.7277,75.4745,1.004196,3.826649,2000,6.0,4.0
# From MPC194180
C/2022 O1 (ATLAS),h,02/14.5843/2022,71.0784,49.9013,268.9251,1.000230,7.435069,2000,6.0,4.0
# From MPC194181
P/2022 P2 (ZTF),e,12.4413,291.1692,137.8182,4.493836,0.1034614,0.55754262,150.6641,07/06.0/2026,2000,g 12.5,4.0
# From MPC xxxxx
C/2022 QE78 (ATLAS),e,36.6584,119.8919,0.6586,1301,0.0000210,0.99579186,0.0000,09/12.1317/2025,2000,g  5.0,4.0
# From MPC194181
P/2022 R1 (PANSTARRS),e,7.3941,175.5661,221.5602,7.110935,0.0519773,0.49947882,52.3931,07/06.0/2026,2000,g 11.5,4.0
# From MPC194181
C/2022 R3 (Leonard),h,03/05.8990/2023,43.0560,8.2704,72.9652,1.001362,5.135488,2000,9.0,4.0
# From MPC194181
P/2022 R5 (PANSTARRS),e,15.2923,115.0396,240.4453,3.071149,0.1831271,0.19445174,275.2256,07/06.0/2026,2000,g 16.0,4.0
# From MPEC 2026-M30
C/2022 R6 (PANSTARRS),h,08/27.3660/2025,57.0406,150.7737,320.0216,1.004850,6.566789,2000,5.0,4.0
# From MPC194182
P/2022 S1 (PANSTARRS),e,34.5618,136.0843,262.8532,6.407713,0.0607644,0.50710141,86.1527,07/06.0/2026,2000,g 13.0,4.0
# From MPC194182
C/2022 S4 (Lemmon),e,101.1929,220.1780,268.5543,1405,0.0000187,0.99803511,0.0000,07/18.7773/2024,2000,g  8.0,4.0
# From MPC194182
C/2022 T1 (Lemmon),h,02/17.5941/2024,22.5366,236.8957,324.3063,1.000751,3.443411,2000,9.0,4.0
# From MPC194182
C/2022 U1 (Leonard),h,03/26.2301/2024,128.1371,72.5343,78.6147,1.000702,4.201519,2000,8.5,4.0
# From MPC194182
C/2022 U3 (Bok),e,33.6613,272.7876,189.1616,8693,0.0000012,0.99944454,0.0000,07/28.6798/2024,2000,g  7.5,4.0
# From MPC194182
C/2022 U4 (Bok),e,52.0599,132.9183,88.9610,3337,0.0000051,0.99913236,0.0000,08/03.8167/2023,2000,g 10.5,4.0
# From MPC194182
C/2022 V2 (Lemmon),e,98.9109,332.8276,168.9897,36.69161,0.0044346,0.94368279,4.3337,07/06.0/2026,2000,g 12.0,4.0
# From MPC194182
P/2022 W1 (Rankin),e,13.4598,38.8454,17.9700,6.977789,0.0534721,0.51603306,74.2897,07/06.0/2026,2000,g 12.5,4.0
# From MPC194183
C/2022 W2 (ATLAS),e,63.4897,320.4194,123.3642,339.8131,0.0001573,0.99079416,0.0000,03/08.5095/2023,2000,g 11.5,4.0
# From MPC xxxxx
C/2023 A3 (Tsuchinshan-ATLAS),h,09/27.8062/2024,139.1027,21.6531,308.5700,1.000174,0.391429,2000,6.5,3.2
# From MPEC 2026-J11
P/2023 B1 (PANSTARRS),e,14.5859,78.5676,82.0157,7.072950,0.0523966,0.13150924,60.4893,07/06.0/2026,2000,g  5.5,4.0
# From MPC194183
P/2023 B3 (PANSTARRS),e,9.1557,153.9675,240.3695,4.553001,0.1014513,0.12172272,216.1845,07/06.0/2026,2000,g 10.5,4.0
# From MPEC 2026-M30
C/2023 C2 (ATLAS),e,48.3226,301.0051,357.4125,1580,0.0000157,0.99850174,0.0000,11/16.6533/2024,2000,g  7.0,4.0
# From MPEC 2026-L50
C/2023 F3 (ATLAS),h,02/02.8844/2025,145.9621,109.4695,265.5778,1.002882,5.192436,2000,6.0,4.0
# From MPC xxxxx
C/2023 H1 (PANSTARRS),e,21.7821,292.6445,333.7223,747.9413,0.0000482,0.99405508,0.0000,11/28.4728/2024,2000,g  8.5,4.0
# From MPEC 2026-HH0
C/2023 H3 (PANSTARRS),e,2.4883,55.0740,193.2345,13.61795,0.0196127,0.61597278,17.0431,07/06.0/2026,2000,g 10.0,4.0
# From MPC xxxxx
C/2023 H5 (Lemmon),h,06/30.4720/2025,97.8552,159.4711,60.1280,1.000689,4.313048,2000,7.0,4.0
# From MPC xxxxx
P/2023 JN16 (Lemmon),e,3.7030,11.7527,353.5096,2.697374,0.2224807,0.14809780,122.6122,07/06.0/2026,2000,g 14.0,4.0
# From MPC194184
P/2023 M1 (PANSTARRS),e,12.2929,216.8664,79.6744,6.836654,0.0551364,0.58659306,51.5522,07/06.0/2026,2000,g 13.5,4.0
# From MPC194185
P/2023 M2 (PANSTARRS),e,19.7098,83.2569,243.7765,5.589304,0.0745878,0.36886811,80.1228,07/06.0/2026,2000,g 12.5,4.0
# From MPC194185
P/2023 M4 (ATLAS),e,7.5921,296.2645,320.3524,5.441428,0.0776488,0.27925672,119.9869,07/06.0/2026,2000,g  7.5,4.0
# From MPC194185
C/2023 P1 (Nishimura),e,132.4872,66.7557,116.1642,55.78610,0.0023655,0.99599012,0.0000,09/17.4476/2023,2000,g 10.0,4.0
# From MPC194185
C/2023 Q1 (PANSTARRS),h,12/01.0627/2024,36.6417,7.1242,84.4298,1.004681,2.576626,2000,10.0,4.0
# From MPC194185
C/2023 Q2 (PANSTARRS),e,104.0613,92.6742,171.6436,325.1782,0.0001681,0.99013613,0.0000,06/23.7413/2024,2000,g 11.5,4.0
# From MPC xxxxx
C/2023 R1 (PANSTARRS),h,04/13.3673/2026,149.3137,62.5709,144.2584,1.002299,3.570094,2000,6.0,4.0
# From MPC194185
C/2023 R2 (PANSTARRS),h,08/12.2501/2024,30.6996,188.8493,337.3558,1.000405,0.904863,2000,10.5,4.0
# From MPC194185
C/2023 RN3 (ATLAS),e,10.3521,207.0673,130.6081,10.15593,0.0304526,0.48964526,38.4685,07/06.0/2026,2000,g  7.5,4.0
# From MPEC 2026-L50
C/2023 RS61 (PANSTARRS),e,19.9470,347.0373,119.5726,11.89228,0.0240329,0.32790088,338.7935,07/06.0/2026,2000,g  6.8,4.0
# From MPEC 2026-K60
P/2023 S1 (PANSTARRS),e,9.1575,317.2858,180.3806,3.845393,0.1307052,0.31852531,64.9066,07/06.0/2026,2000,g 11.5,4.0
# From MPC194186
P/2023 T1 (PANSTARRS),e,6.6117,249.5816,202.9263,4.227136,0.1134057,0.33301358,87.7818,07/06.0/2026,2000,g 14.0,4.0
# From MPEC 2026-M30
C/2023 T3 (Fuls),e,27.2159,246.0006,302.8632,1020,0.0000303,0.99652120,0.0000,01/25.4842/2025,2000,g  8.5,4.0
# From MPEC 2026-HH0
C/2023 TD22 (Lemmon),e,170.4872,5.5836,32.5253,48.25463,0.0029403,0.95119166,1.9339,07/06.0/2026,2000,g 12.5,4.0
# From MPC191587
C/2023 U1 (Fuls),e,108.1478,305.7999,255.6756,4991,0.0000028,0.99900347,0.0000,10/13.2701/2024,2000,g  8.0,4.0
# From MPC xxxxx
C/2023 V1 (Lemmon),h,07/13.0704/2025,102.0060,15.0549,103.3230,1.000258,5.092735,2000,8.5,4.0
# From MPC194186
P/2023 V2 (PANSTARRS),e,9.8883,95.4733,330.5109,7.214066,0.0508667,0.56955905,44.9497,07/06.0/2026,2000,g 13.5,4.0
# From MPC194186
C/2023 V3 (PANSTARRS),e,40.6205,91.2609,291.8127,12.68096,0.0218261,0.64525876,23.3643,07/06.0/2026,2000,g 11.5,4.0
# From MPC194186
C/2023 V4 (Camarasa-Duszanowicz),h,05/30.4642/2024,67.0949,66.3249,50.8891,1.001326,1.122268,2000,12.0,4.0
# From MPC194187
P/2023 V6 (PANSTARRS),e,3.9868,189.3357,191.1493,5.268345,0.0815066,0.17560015,108.0448,07/06.0/2026,2000,g 11.5,4.0
# From MPC194187
C/2023 X1 (Leonard),e,110.5951,136.9602,321.5004,155.6695,0.0005075,0.99387693,0.0000,10/17.7639/2023,2000,g 13.5,3.2
# From MPEC 2026-M30
C/2023 X2 (Lemmon),h,12/28.5463/2025,76.9810,66.3036,64.8098,1.000102,5.088691,2000,8.5,3.2
# From MPC194187
P/2023 X3 (PANSTARRS),e,4.4826,62.0194,40.9619,4.247841,0.1125775,0.28604258,90.5748,07/06.0/2026,2000,g 15.5,4.0
# From MPC194187
C/2023 X4 (Hogan),e,11.5895,28.7693,100.6574,9.934911,0.0314744,0.63156764,24.2863,07/06.0/2026,2000,g 12.0,4.0
# From MPC194187
C/2023 X7 (PANSTARRS),e,69.1276,119.2057,354.3861,3026,0.0000059,0.99840688,0.0000,05/14.8957/2025,2000,g  9.0,4.0
# From MPC194187
P/2023 Y2 (Gibbs),e,6.9912,79.2312,16.9618,3.748908,0.1357834,0.39203057,144.0426,07/06.0/2026,2000,g 15.5,4.0
# From MPC xxxxx
C/2024 A1 (ATLAS),e,94.5050,112.1399,353.1948,7963,0.0000014,0.99951346,0.0000,06/12.9292/2025,2000,g  7.0,4.0
# From MPC194187
C/2024 A2 (ATLAS),e,119.1210,78.1766,295.5118,32.13697,0.0054100,0.94147914,4.3192,07/06.0/2026,2000,g 12.5,4.0
# From MPC194188
C/2024 B1 (Lemmon),h,10/07.8019/2024,70.8882,79.1876,66.2318,1.001276,1.633939,2000,13.0,4.0
# From MPC194188
C/2024 B2 (Lemmon),e,99.8735,294.3884,130.3215,1159,0.0000250,0.99647962,0.0000,10/05.2055/2023,2000,g 11.5,4.0
# From MPC194188
C/2024 C1 (PANSTARRS),e,14.2251,83.8125,94.5299,10.60140,0.0285535,0.58368650,19.2310,07/06.0/2026,2000,g 11.5,4.0
# From MPC194188
C/2024 C2 (PANSTARRS),e,27.2831,66.4592,87.6620,16.25612,0.0150376,0.44682754,7.2094,07/06.0/2026,2000,g  6.0,4.0
# From MPC194188
C/2024 C3 (PANSTARRS),e,22.4463,359.6940,159.8002,11.68696,0.0246690,0.42542283,23.8956,07/06.0/2026,2000,g  9.0,4.0
# From MPEC 2026-L50
C/2024 D1 (Lemmon),e,132.4480,179.6519,125.8098,67111,0.0000001,0.99990030,0.0000,12/03.6792/2027,2000,g  7.3,4.0
# From MPC xxxxx
C/2024 E1 (Wierzchos),h,01/20.7818/2026,75.2341,108.0793,243.6263,1.000318,0.566130,2000,7.0,4.0
# From MPC194188
C/2024 E2 (Bok),e,155.6527,135.6597,358.2257,51.06669,0.0027008,0.84921301,2.6578,07/06.0/2026,2000,g  8.0,4.0
# From MPC194188
P/2024 F1 (PANSTARRS),e,7.0060,251.5124,229.6129,3.446553,0.1540375,0.46019707,151.5887,07/06.0/2026,2000,g 16.0,4.0
# From MPC194189
C/2024 F2 (PANSTARRS),e,13.7450,138.9392,112.8616,9.946306,0.0314204,0.60121433,22.2174,07/06.0/2026,2000,g 11.0,4.0
# From MPC194189
P/2024 FG9 (Nanshan-Hahn),e,1.7307,253.0298,245.9708,3.258320,0.1675767,0.51001417,130.1108,07/06.0/2026,2000,g 14.0,4.0
# From MPC194189
C/2024 G1 (Wierzchos),e,95.3768,30.6020,128.2201,121.7173,0.0007340,0.96771096,0.4572,07/06.0/2026,2000,g 10.0,4.0
# From MPEC 2026-KB8
C/2024 G2 (ATLAS),e,122.1214,171.3993,328.7683,689.3846,0.0000545,0.99224094,0.0000,06/13.7540/2025,2000,g  7.0,4.0
# From MPC194189
C/2024 G3 (ATLAS),h,01/13.4287/2025,116.8402,220.4686,108.1944,1.000009,0.093679,2000,9.0,4.0
# From MPC xxxxx
C/2024 G4 (PANSTARRS),e,33.0297,152.9706,131.4043,3877,0.0000041,0.99873591,0.0000,03/21.4196/2026,2000,g  8.0,4.0
# From MPC194189
